{
  "type": "FeatureCollection",
  "features": [
    {
      "type": "Feature",
      "properties": {
        "norad_id": 2807,
        "name": "OPS 7218 (TRANSIT 16)",
        "group": "nnss",
        "lat": 15.67675729572307,
        "lon": -6.3123597919691194,
        "alt_km": 1063.1792067055885,
        "timestamp": "2025-12-25T09:48:52.558894+00:00",
        "meta_object_name": "OPS 7218 (TRANSIT 16)",
        "meta_object_id": "1967-048A",
        "meta_epoch": "2025-12-25T01:10:04.103040",
        "meta_mean_motion": 13.50724741,
        "meta_eccentricity": 0.0022148,
        "meta_inclination": 89.6734,
        "meta_ra_of_asc_node": 353.6078,
        "meta_arg_of_pericenter": 81.3315,
        "meta_mean_anomaly": 343.8092,
        "meta_ephemeris_type": 0,
        "meta_classification_type": "U",
        "meta_norad_cat_id": 2807,
        "meta_element_set_no": 999,
        "meta_rev_at_epoch": 88442,
        "meta_bstar": 0.00013354,
        "meta_mean_motion_dot": 9.6e-07,
        "meta_mean_motion_ddot": 0,
        "tle_line1": "1 02807U 67048A   25359.04865860  .00000096  00000+0  13354-3 0  9996",
        "tle_line2": "2 02807  89.6734 353.6078 0022148  81.3315 343.8092 13.50724741884425"
      },
      "geometry": {
        "type": "Point",
        "coordinates": [
          -6.3123597919691194,
          15.67675729572307
        ]
      }
    },
    {
      "type": "Feature",
      "properties": {
        "norad_id": 2965,
        "name": "OPS 4947 (TRANSIT 17)",
        "group": "nnss",
        "lat": -25.121403399906907,
        "lon": -156.17859871018112,
        "alt_km": 1030.4842687875425,
        "timestamp": "2025-12-25T09:48:52.558917+00:00",
        "meta_object_name": "OPS 4947 (TRANSIT 17)",
        "meta_object_id": "1967-092A",
        "meta_epoch": "2025-12-24T15:39:13.887648",
        "meta_mean_motion": 13.53456658,
        "meta_eccentricity": 0.00470847,
        "meta_inclination": 89.2486,
        "meta_ra_of_asc_node": 23.5265,
        "meta_arg_of_pericenter": 199.1608,
        "meta_mean_anomaly": 281.0103,
        "meta_ephemeris_type": 0,
        "meta_classification_type": "U",
        "meta_norad_cat_id": 2965,
        "meta_element_set_no": 999,
        "meta_rev_at_epoch": 87258,
        "meta_bstar": 0.00018040166,
        "meta_mean_motion_dot": 1.33e-06,
        "meta_mean_motion_ddot": 0,
        "tle_line1": "1 02965U 67092A   25358.65224407  .00000133  00000+0  18040-3 0  9991",
        "tle_line2": "2 02965  89.2486  23.5265 0047084 199.1608 281.0103 13.53456658872582"
      },
      "geometry": {
        "type": "Point",
        "coordinates": [
          -156.17859871018112,
          -25.121403399906907
        ]
      }
    },
    {
      "type": "Feature",
      "properties": {
        "norad_id": 3133,
        "name": "OPS 7034 (TRANSIT 18)",
        "group": "nnss",
        "lat": -88.70278451919671,
        "lon": 92.4156623560578,
        "alt_km": 1113.905216243892,
        "timestamp": "2025-12-25T09:48:52.558931+00:00",
        "meta_object_name": "OPS 7034 (TRANSIT 18)",
        "meta_object_id": "1968-012A",
        "meta_epoch": "2025-12-25T05:41:08.147040",
        "meta_mean_motion": 13.51568629,
        "meta_eccentricity": 0.0074981,
        "meta_inclination": 90.0285,
        "meta_ra_of_asc_node": 273.6746,
        "meta_arg_of_pericenter": 133.2476,
        "meta_mean_anomaly": 18.2568,
        "meta_ephemeris_type": 0,
        "meta_classification_type": "U",
        "meta_norad_cat_id": 3133,
        "meta_element_set_no": 999,
        "meta_rev_at_epoch": 57087,
        "meta_bstar": 0.00021562,
        "meta_mean_motion_dot": 1.53e-06,
        "meta_mean_motion_ddot": 0,
        "tle_line1": "1 03133U 68012A   25359.23689985  .00000153  00000+0  21562-3 0  9998",
        "tle_line2": "2 03133  90.0285 273.6746 0074981 133.2476  18.2568 13.51568629570879"
      },
      "geometry": {
        "type": "Point",
        "coordinates": [
          92.4156623560578,
          -88.70278451919671
        ]
      }
    },
    {
      "type": "Feature",
      "properties": {
        "norad_id": 4507,
        "name": "NNSS 19 (TRANSIT 19)",
        "group": "nnss",
        "lat": -47.27342725849338,
        "lon": 54.53730118705585,
        "alt_km": 963.0308132080736,
        "timestamp": "2025-12-25T09:48:52.558943+00:00",
        "meta_object_name": "NNSS 19 (TRANSIT 19)",
        "meta_object_id": "1970-067A",
        "meta_epoch": "2025-12-25T05:07:31.564992",
        "meta_mean_motion": 13.51317581,
        "meta_eccentricity": 0.0170206,
        "meta_inclination": 90.0047,
        "meta_ra_of_asc_node": 234.5423,
        "meta_arg_of_pericenter": 256.8648,
        "meta_mean_anomaly": 101.3462,
        "meta_ephemeris_type": 0,
        "meta_classification_type": "U",
        "meta_norad_cat_id": 4507,
        "meta_element_set_no": 999,
        "meta_rev_at_epoch": 72390,
        "meta_bstar": 0.0001322,
        "meta_mean_motion_dot": 1.02e-06,
        "meta_mean_motion_ddot": 0,
        "tle_line1": "1 04507U 70067A   25359.21355978  .00000102  00000+0  13220-3 0  9993",
        "tle_line2": "2 04507  90.0047 234.5423 0170206 256.8648 101.3462 13.51317581723909"
      },
      "geometry": {
        "type": "Point",
        "coordinates": [
          54.53730118705585,
          -47.27342725849338
        ]
      }
    },
    {
      "type": "Feature",
      "properties": {
        "norad_id": 6909,
        "name": "NNSS 20 (TRANSIT 20)",
        "group": "nnss",
        "lat": 40.93471390703461,
        "lon": 74.73942164906185,
        "alt_km": 1005.915969834723,
        "timestamp": "2025-12-25T09:48:52.558954+00:00",
        "meta_object_name": "NNSS 20 (TRANSIT 20)",
        "meta_object_id": "1973-081A",
        "meta_epoch": "2025-12-25T03:54:01.208736",
        "meta_mean_motion": 13.7144081,
        "meta_eccentricity": 0.0156132,
        "meta_inclination": 89.856,
        "meta_ra_of_asc_node": 254.8681,
        "meta_arg_of_pericenter": 41.4954,
        "meta_mean_anomaly": 319.7939,
        "meta_ephemeris_type": 0,
        "meta_classification_type": "U",
        "meta_norad_cat_id": 6909,
        "meta_element_set_no": 999,
        "meta_rev_at_epoch": 80531,
        "meta_bstar": 0.00028042,
        "meta_mean_motion_dot": 2.86e-06,
        "meta_mean_motion_ddot": 0,
        "tle_line1": "1 06909U 73081A   25359.16251399  .00000286  00000+0  28042-3 0  9997",
        "tle_line2": "2 06909  89.8560 254.8681 0156132  41.4954 319.7939 13.71440810805318"
      },
      "geometry": {
        "type": "Point",
        "coordinates": [
          74.73942164906185,
          40.93471390703461
        ]
      }
    },
    {
      "type": "Feature",
      "properties": {
        "norad_id": 10457,
        "name": "TRANSAT",
        "group": "nnss",
        "lat": 54.96906035784143,
        "lon": -102.35493696120335,
        "alt_km": 1053.6179455103238,
        "timestamp": "2025-12-25T09:48:52.558965+00:00",
        "meta_object_name": "TRANSAT",
        "meta_object_id": "1977-106A",
        "meta_epoch": "2025-12-25T03:56:24.941184",
        "meta_mean_motion": 13.48945499,
        "meta_eccentricity": 0.0026522,
        "meta_inclination": 89.6475,
        "meta_ra_of_asc_node": 78.1569,
        "meta_arg_of_pericenter": 154.2871,
        "meta_mean_anomaly": 222.9086,
        "meta_ephemeris_type": 0,
        "meta_classification_type": "U",
        "meta_norad_cat_id": 10457,
        "meta_element_set_no": 999,
        "meta_rev_at_epoch": 36911,
        "meta_bstar": 0.00012823,
        "meta_mean_motion_dot": 9.1e-07,
        "meta_mean_motion_ddot": 0,
        "tle_line1": "1 10457U 77106A   25359.16417756  .00000091  00000+0  12823-3 0  9997",
        "tle_line2": "2 10457  89.6475  78.1569 0026522 154.2871 222.9086 13.48945499369114"
      },
      "geometry": {
        "type": "Point",
        "coordinates": [
          -102.35493696120335,
          54.96906035784143
        ]
      }
    },
    {
      "type": "Feature",
      "properties": {
        "norad_id": 12458,
        "name": "NOVA 1",
        "group": "nnss",
        "lat": -62.52008107695733,
        "lon": 90.92231220606479,
        "alt_km": 1187.9091882230714,
        "timestamp": "2025-12-25T09:48:52.558977+00:00",
        "meta_object_name": "NOVA 1",
        "meta_object_id": "1981-044A",
        "meta_epoch": "2025-12-25T00:07:00.564096",
        "meta_mean_motion": 13.23279741,
        "meta_eccentricity": 0.0015741,
        "meta_inclination": 89.8525,
        "meta_ra_of_asc_node": 91.2118,
        "meta_arg_of_pericenter": 73.8704,
        "meta_mean_anomaly": 99.9773,
        "meta_ephemeris_type": 0,
        "meta_classification_type": "U",
        "meta_norad_cat_id": 12458,
        "meta_element_set_no": 999,
        "meta_rev_at_epoch": 15348,
        "meta_bstar": 0.00017384,
        "meta_mean_motion_dot": 8.3e-07,
        "meta_mean_motion_ddot": 0,
        "tle_line1": "1 12458U 81044A   25359.00486764  .00000083  00000+0  17384-3 0  9992",
        "tle_line2": "2 12458  89.8525  91.2118 0015741  73.8704  99.9773 13.23279741153482"
      },
      "geometry": {
        "type": "Point",
        "coordinates": [
          90.92231220606479,
          -62.52008107695733
        ]
      }
    }
  ]
}